KUIPER-00629            
1 69783U 26151W   26199.25002315 -.01087108  00000+0 -38685-1 0  9990
2 69783  51.8779 165.7573 0006539 166.5712 182.0707 15.31265908  2813
KUIPER-00631            
1 69784U 26151X   26199.25002315 -.01764220  00000+0 -61012-1 0  9998
2 69784  51.8738 165.7493 0008270 166.3755 179.3973 15.32639109  1305
KUIPER-00634            
1 69785U 26151Y   26199.23786348  .00008812  00000+0  24384-3 0  9990
2 69785  51.8780 165.6315 0003592 144.8967 215.2257 15.37784670  2487
KUIPER-00639            
1 69786U 26151Z   26199.12511195 -.00059319  00000+0 -16959-2 0  9993
2 69786  51.8690 166.3668 0009781 173.3174 186.7944 15.35442523  2469
KUIPER-00641            
1 69787U 26151AA  26199.26198786  .00002708  00000+0  90532-4 0  9995
2 69787  51.8676 165.7808 0011560 172.5486 187.5674 15.34656707  2489
KUIPER-00644            
1 69788U 26151AB  26199.00002315 -.00010254  00000+0 -27234-3 0  9995
2 69788  51.8744 166.9196 0008426 169.0368 245.6224 15.36540051  3389
KUIPER-00646            
1 69789U 26151AC  26199.25436693  .00000066  00000+0  12804-4 0  9999
2 69789  51.8701 165.7336 0007704 183.2916 176.8021 15.35912269  2484
KUIPER-00647            
1 69790U 26151AD  26199.25909325  .00008535  00000+0  25700-3 0  9995
2 69790  51.8673 165.7627 0010603 179.9038 180.1952 15.35132819  2482
KUIPER-00662            
1 69791U 26151AE  26199.18528492  .00003156  00000+0  97814-4 0  9990
2 69791  51.8744 166.0251 0008294 169.1961 190.9205 15.36538237  2472
